OBJECT_NAME,OBJECT_ID,EPOCH,MEAN_MOTION,ECCENTRICITY,INCLINATION,RA_OF_ASC_NODE,ARG_OF_PERICENTER,MEAN_ANOMALY,EPHEMERIS_TYPE,CLASSIFICATION_TYPE,NORAD_CAT_ID,ELEMENT_SET_NO,REV_AT_EPOCH,BSTAR,MEAN_MOTION_DOT,MEAN_MOTION_DDOT
STARLINK-35376,2025-232P,2026-07-02T16:34:47.534016,15.34381698,.0001448,53.1600,288.9702,105.3114,254.8048,0,U,66018,999,4105,.10696E-2,.35913E-3,0
STARLINK-35382,2025-232Q,2026-07-02T15:07:03.276192,15.34391412,.0001648,53.1591,289.2994,127.1574,232.9579,0,U,66019,999,4104,.10791E-2,.36248E-3,0
STARLINK-35430,2025-232R,2026-07-02T13:26:29.071680,15.30175743,.0001071,53.1604,290.2825,110.0361,250.0755,0,U,66020,999,4100,.10015E-2,.29398E-3,0
STARLINK-35432,2025-232S,2026-07-02T13:35:36.305088,15.30183971,.0002528,53.1578,290.3194,93.4541,266.6749,0,U,66021,999,4102,.73028E-3,.21322E-3,0
STARLINK-35340,2025-232T,2026-07-02T16:25:28.816320,15.30171246,.0001398,53.1598,289.6367,69.6892,290.4259,0,U,66022,999,4104,.69415E-3,.20237E-3,0
STARLINK-35394,2025-232U,2026-07-02T16:16:21.218304,15.30183660,.0001061,53.1607,289.5969,99.2761,260.8360,0,U,66023,999,4104,.74787E-3,.21845E-3,0
STARLINK-35410,2025-232V,2026-07-02T17:04:57.912960,15.34370621,.0001128,53.1589,288.3892,57.8087,302.3024,0,U,66024,999,4106,.10935E-2,.36715E-3,0
STARLINK-35280,2025-232W,2026-07-02T19:15:20.619072,15.30198169,.0001016,53.1589,288.9498,86.3478,273.7639,0,U,66025,999,4106,.60539E-3,.17612E-3,0
STARLINK-34812,2025-232X,2026-07-02T16:07:30.940032,15.34390307,.0001158,53.1590,288.8515,173.7560,186.3457,0,U,66026,999,4104,.90778E-3,.30409E-3,0
STARLINK-35341,2025-232Y,2026-07-02T16:25:42.275712,15.34353433,.0001553,53.1581,288.9242,106.3146,253.8027,0,U,66027,999,4105,.72754E-3,.24248E-3,0
STARLINK-35339,2025-232Z,2026-07-02T16:31:46.087104,15.34372255,.0001505,53.1604,288.9476,76.7817,283.3353,0,U,66028,999,4105,.10172E-2,.34119E-3,0
STARLINK-35399,2025-232AA,2026-07-02T16:56:00.226752,15.34376012,.0001094,53.1596,289.0548,49.0899,311.0198,0,U,66029,999,4105,.10264E-2,.34434E-3,0
STARLINK-35431,2025-232AB,2026-07-02T16:13:34.896576,15.34377406,.0001372,53.1579,288.8698,107.6403,252.4750,0,U,66030,999,4105,.10888E-2,.36564E-3,0
STARLINK-35326,2025-232AC,2026-07-02T17:01:55.823232,15.34321289,.0001306,53.1590,288.3673,67.2806,292.8334,0,U,66031,999,4106,.67829E-3,.22553E-3,0
STARLINK-35311,2025-232AD,2026-07-02T14:00:23.891040,15.34363567,.0001229,53.1592,289.0009,65.3140,294.7990,0,U,66032,999,4104,.10728E-2,.36002E-3,0
QIANFAN-91,2025-233A,2026-07-02T20:01:41.111040,13.51013832,.0001845,88.9987,41.6082,88.9195,271.2167,0,U,66033,999,3529,.12475E-3,.93E-6,0
QIANFAN-92,2025-233B,2026-07-02T20:13:27.484608,13.51012068,.0001911,88.9971,41.5764,82.4831,277.6537,0,U,66034,999,3529,.13208E-3,.97E-6,0
QIANFAN-93,2025-233C,2026-07-02T20:25:20.618112,13.51015644,.000185,88.9998,41.6319,87.1559,272.9804,0,U,66035,999,3529,.13225E-3,.97E-6,0
QIANFAN-94,2025-233D,2026-07-02T07:41:02.647392,13.51014299,.0002,88.9995,41.5882,85.1762,274.9617,0,U,66036,999,3527,.13086E-3,.97E-6,0
QIANFAN-95,2025-233E,2026-07-02T20:19:28.549344,13.51015395,.0001966,88.9992,41.0782,91.1675,268.9701,0,U,66037,999,3559,.13223E-3,.97E-6,0
QIANFAN-96,2025-233F,2026-07-02T20:55:01.334208,13.51014325,.0001824,88.9991,41.6188,90.8100,269.3260,0,U,66038,999,3529,.12094E-3,.9E-6,0
QIANFAN-97,2025-233G,2026-07-02T20:31:17.635872,13.51014467,.000187,88.9993,41.6050,88.8157,271.3208,0,U,66039,999,3530,.14066E-3,.103E-5,0
QIANFAN-98,2025-233H,2026-07-02T20:43:06.606624,13.51014378,.0002428,88.9982,41.3334,85.8762,274.2667,0,U,66040,999,3544,.12294E-3,.91E-6,0
QIANFAN-99,2025-233J,2026-07-02T20:49:00.931296,13.51014354,.0002271,88.9993,41.6079,88.7483,271.3928,0,U,66041,999,3530,.12745E-3,.94E-6,0
QIANFAN-100,2025-233K,2026-07-02T20:37:23.705760,13.51042139,.000185,89.0005,41.5375,87.7601,272.3761,0,U,66042,999,3535,.48153E-4,.43E-6,0
QIANFAN-101,2025-233L,2026-07-02T20:43:09.197760,14.26817208,.0017539,88.9989,38.7691,92.0479,268.2724,0,U,66043,999,3686,.14593E-3,.369E-5,0
QIANFAN-102,2025-233M,2026-07-02T14:00:13.702752,13.51014224,.0002036,88.9991,41.5458,86.5189,273.6195,0,U,66044,999,3531,.1135E-3,.85E-6,0
QIANFAN-103,2025-233N,2026-07-02T14:06:09.393408,13.51015130,.0001821,88.9993,41.6410,87.3650,272.7709,0,U,66045,999,3526,.11932E-3,.89E-6,0
QIANFAN-104,2025-233P,2026-07-02T03:32:23.731296,13.51001795,.00020631,88.9999,41.5884,83.6465,276.4921,0,U,66046,999,3525,.12304816E-3,.91E-6,0
QIANFAN-105,2025-233Q,2026-07-02T03:44:16.697184,13.51003556,.00019703,89.0012,41.4327,90.3717,269.7660,0,U,66047,999,3536,.1340923E-3,.99E-6,0
