STARLINK-35376          
1 66018U 25232P   26183.69082794  .00035913  00000+0  10696-2 0  9994
2 66018  53.1600 288.9702 0001448 105.3114 254.8048 15.34381698 41055
STARLINK-35382          
1 66019U 25232Q   26183.62989903  .00036248  00000+0  10791-2 0  9994
2 66019  53.1591 289.2994 0001648 127.1574 232.9579 15.34391412 41046
STARLINK-35430          
1 66020U 25232R   26183.56005870  .00029398  00000+0  10015-2 0  9998
2 66020  53.1604 290.2825 0001071 110.0361 250.0755 15.30175743 41009
STARLINK-35432          
1 66021U 25232S   26183.56639242  .00021322  00000+0  73028-3 0  9998
2 66021  53.1578 290.3194 0002528  93.4541 266.6749 15.30183971 41022
STARLINK-35340          
1 66022U 25232T   26183.68436130  .00020237  00000+0  69415-3 0  9992
2 66022  53.1598 289.6367 0001398  69.6892 290.4259 15.30171246 41041
STARLINK-35394          
1 66023U 25232U   26183.67802336  .00021845  00000+0  74787-3 0  9991
2 66023  53.1607 289.5969 0001061  99.2761 260.8360 15.30183660 41048
STARLINK-35410          
1 66024U 25232V   26183.71178140  .00036715  00000+0  10935-2 0  9992
2 66024  53.1589 288.3892 0001128  57.8087 302.3024 15.34370621 41065
STARLINK-35280          
1 66025U 25232W   26183.80232198  .00017612  00000+0  60539-3 0  9998
2 66025  53.1589 288.9498 0001016  86.3478 273.7639 15.30198169 41065
STARLINK-34812          
1 66026U 25232X   26183.67188588  .00030409  00000+0  90778-3 0  9994
2 66026  53.1590 288.8515 0001158 173.7560 186.3457 15.34390307 41044
STARLINK-35341          
1 66027U 25232Y   26183.68451708  .00024248  00000+0  72754-3 0  9991
2 66027  53.1581 288.9242 0001553 106.3146 253.8027 15.34353433 41057
STARLINK-35339          
1 66028U 25232Z   26183.68872786  .00034119  00000+0  10172-2 0  9998
2 66028  53.1604 288.9476 0001505  76.7817 283.3353 15.34372255 41058
STARLINK-35399          
1 66029U 25232AA  26183.70555818  .00034434  00000+0  10264-2 0  9998
2 66029  53.1596 289.0548 0001094  49.0899 311.0198 15.34376012 41058
STARLINK-35431          
1 66030U 25232AB  26183.67609834  .00036564  00000+0  10888-2 0  9992
2 66030  53.1579 288.8698 0001372 107.6403 252.4750 15.34377406 41055
STARLINK-35326          
1 66031U 25232AC  26183.70967388  .00022553  00000+0  67829-3 0  9999
2 66031  53.1590 288.3673 0001306  67.2806 292.8334 15.34321289 41067
STARLINK-35311          
1 66032U 25232AD  26183.58360985  .00036002  00000+0  10728-2 0  9995
2 66032  53.1592 289.0009 0001229  65.3140 294.7990 15.34363567 41047
QIANFAN-91              
1 66033U 25233A   26183.83450360  .00000093  00000+0  12475-3 0  9995
2 66033  88.9987  41.6082 0001845  88.9195 271.2167 13.51013832 35290
QIANFAN-92              
1 66034U 25233B   26183.84267922  .00000097  00000+0  13208-3 0  9996
2 66034  88.9971  41.5764 0001911  82.4831 277.6537 13.51012068 35291
QIANFAN-93              
1 66035U 25233C   26183.85093308  .00000097  00000+0  13225-3 0  9992
2 66035  88.9998  41.6319 0001850  87.1559 272.9804 13.51015644 35297
QIANFAN-94              
1 66036U 25233D   26183.32016953  .00000097  00000+0  13086-3 0  9991
2 66036  88.9995  41.5882 0002000  85.1762 274.9617 13.51014299 35278
QIANFAN-95              
1 66037U 25233E   26183.84685821  .00000097  00000+0  13223-3 0  9998
2 66037  88.9992  41.0782 0001966  91.1675 268.9701 13.51015395 35590
QIANFAN-96              
1 66038U 25233F   26183.87154322  .00000090  00000+0  12094-3 0  9997
2 66038  88.9991  41.6188 0001824  90.8100 269.3260 13.51014325 35292
QIANFAN-97              
1 66039U 25233G   26183.85506523  .00000103  00000+0  14066-3 0  9996
2 66039  88.9993  41.6050 0001870  88.8157 271.3208 13.51014467 35307
QIANFAN-98              
1 66040U 25233H   26183.86327091  .00000091  00000+0  12294-3 0  9997
2 66040  88.9982  41.3334 0002428  85.8762 274.2667 13.51014378 35445
QIANFAN-99              
1 66041U 25233J   26183.86737189  .00000094  00000+0  12745-3 0  9995
2 66041  88.9993  41.6079 0002271  88.7483 271.3928 13.51014354 35302
QIANFAN-100             
1 66042U 25233K   26183.85930215  .00000043  00000+0  48153-4 0  9997
2 66042  89.0005  41.5375 0001850  87.7601 272.3761 13.51042139 35353
QIANFAN-101             
1 66043U 25233L   26183.86330090  .00000369  00000+0  14593-3 0  9995
2 66043  88.9989  38.7691 0017539  92.0479 268.2724 14.26817208 36865
QIANFAN-102             
1 66044U 25233M   26183.58349193  .00000085  00000+0  11350-3 0  9992
2 66044  88.9991  41.5458 0002036  86.5189 273.6195 13.51014224 35319
QIANFAN-103             
1 66045U 25233N   26183.58760872  .00000089  00000+0  11932-3 0  9994
2 66045  88.9993  41.6410 0001821  87.3650 272.7709 13.51015130 35266
QIANFAN-104             
1 66046U 25233P   26183.14749689  .00000091  00000+0  12305-3 0  9998
2 66046  88.9999  41.5884 0002063  83.6465 276.4921 13.51001795 35257
QIANFAN-105             
1 66047U 25233Q   26183.15574881  .00000099  00000+0  13409-3 0  9994
2 66047  89.0012  41.4327 0001970  90.3717 269.7660 13.51003556 35362
